[{"OBJECT_NAME":"KUIPER-00081","OBJECT_ID":"2025-171A","EPOCH":"2026-03-09T12:27:51.030432","MEAN_MOTION":14.79979194,"ECCENTRICITY":5.129e-5,"INCLINATION":51.8988,"RA_OF_ASC_NODE":148.8267,"ARG_OF_PERICENTER":50.4141,"MEAN_ANOMALY":309.6867,"EPHEMERIS_TYPE":0,"CLASSIFICATION_TYPE":"U","NORAD_CAT_ID":65132,"ELEMENT_SET_NO":999,"REV_AT_EPOCH":3301,"BSTAR":0.00075497205,"MEAN_MOTION_DOT":5.545e-5,"MEAN_MOTION_DDOT":0},{"OBJECT_NAME":"OKEAN-O","OBJECT_ID":"1999-039A","EPOCH":"2026-03-09T17:16:10.736544","MEAN_MOTION":14.80335142,"ECCENTRICITY":0.00012718,"INCLINATION":97.9442,"RA_OF_ASC_NODE":128.6108,"ARG_OF_PERICENTER":70.3084,"MEAN_ANOMALY":289.8265,"EPHEMERIS_TYPE":0,"CLASSIFICATION_TYPE":"U","NORAD_CAT_ID":25860,"ELEMENT_SET_NO":999,"REV_AT_EPOCH":43439,"BSTAR":0.0001136203,"MEAN_MOTION_DOT":8.14e-6,"MEAN_MOTION_DDOT":0}]
